{
    "links": {
        "self": "http://www.neowsapp.com/rest/v1/neo/3893458?api_key=iIulBulltgU6a56xZRHN4H3l9WmuAYTsLGpBGhQ2"
    },
    "id": "3893458",
    "neo_reference_id": "3893458",
    "name": "(2019 WK2)",
    "designation": "2019 WK2",
    "nasa_jpl_url": "http://ssd.jpl.nasa.gov/sbdb.cgi?sstr=3893458",
    "absolute_magnitude_h": 25.5,
    "estimated_diameter": {
        "kilometers": {
            "estimated_diameter_min": 0.0211132445,
            "estimated_diameter_max": 0.0472106499
        },
        "meters": {
            "estimated_diameter_min": 21.113244479,
            "estimated_diameter_max": 47.2106498806
        },
        "miles": {
            "estimated_diameter_min": 0.0131191578,
            "estimated_diameter_max": 0.0293353287
        },
        "feet": {
            "estimated_diameter_min": 69.2691770164,
            "estimated_diameter_max": 154.8905885541
        }
    },
    "is_potentially_hazardous_asteroid": false,
    "close_approach_data": [
        {
            "close_approach_date": "2016-07-01",
            "close_approach_date_full": "2016-Jul-01 01:53",
            "epoch_date_close_approach": 1467337980000,
            "relative_velocity": {
                "kilometers_per_second": "27.2011075878",
                "kilometers_per_hour": "97923.9873159875",
                "miles_per_hour": "60846.1575630923"
            },
            "miss_distance": {
                "astronomical": "0.4508134069",
                "lunar": "175.3664152841",
                "kilometers": "67440725.439683303",
                "miles": "41905723.5939954614"
            },
            "orbiting_body": "Earth"
        },
        {
            "close_approach_date": "2019-11-23",
            "close_approach_date_full": "2019-Nov-23 06:26",
            "epoch_date_close_approach": 1574490360000,
            "relative_velocity": {
                "kilometers_per_second": "15.4914276215",
                "kilometers_per_hour": "55769.1394374533",
                "miles_per_hour": "34652.7744465665"
            },
            "miss_distance": {
                "astronomical": "0.0084472892",
                "lunar": "3.2859954988",
                "kilometers": "1263696.471594004",
                "miles": "785224.5761010952"
            },
            "orbiting_body": "Moon"
        },
        {
            "close_approach_date": "2019-11-23",
            "close_approach_date_full": "2019-Nov-23 08:44",
            "epoch_date_close_approach": 1574498640000,
            "relative_velocity": {
                "kilometers_per_second": "14.5547237971",
                "kilometers_per_hour": "52397.0056695373",
                "miles_per_hour": "32557.4616617189"
            },
            "miss_distance": {
                "astronomical": "0.0069678934",
                "lunar": "2.7105105326",
                "kilometers": "1042382.011027058",
                "miles": "647706.1471190804"
            },
            "orbiting_body": "Earth"
        },
        {
            "close_approach_date": "2040-08-19",
            "close_approach_date_full": "2040-Aug-19 12:43",
            "epoch_date_close_approach": 2228992980000,
            "relative_velocity": {
                "kilometers_per_second": "2.7668252146",
                "kilometers_per_hour": "9960.5707726176",
                "miles_per_hour": "6189.1113225745"
            },
            "miss_distance": {
                "astronomical": "1.9797746706",
                "lunar": "770.1323468634",
                "kilometers": "296170073.801711622",
                "miles": "184031550.2040075036"
            },
            "orbiting_body": "Juptr"
        }
    ],
    "orbital_data": {
        "orbit_id": "3",
        "orbit_determination_date": "2019-12-05 11:32:31",
        "first_observation_date": "2019-11-25",
        "last_observation_date": "2019-11-26",
        "data_arc_in_days": 1,
        "observations_used": 54,
        "orbit_uncertainty": "7",
        "minimum_orbit_intersection": ".00505898",
        "jupiter_tisserand_invariant": "3.406",
        "epoch_osculation": "2459000.5",
        "eccentricity": ".6171274438250909",
        "semi_major_axis": "2.173162493790481",
        "inclination": "5.939106942049837",
        "ascending_node_longitude": "237.199031343058",
        "orbital_period": "1170.137044032717",
        "perihelion_distance": ".8320442789810016",
        "perihelion_argument": "129.0036272330485",
        "aphelion_distance": "3.514280708599961",
        "perihelion_time": "2458774.006532945779",
        "mean_anomaly": "69.68213557149775",
        "mean_motion": ".3076562714050223",
        "equinox": "J2000",
        "orbit_class": {
            "orbit_class_type": "APO",
            "orbit_class_description": "Near-Earth asteroid orbits which cross the Earth’s orbit similar to that of 1862 Apollo",
            "orbit_class_range": "a (semi-major axis) > 1.0 AU; q (perihelion) < 1.017 AU"
        }
    },
    "is_sentry_object": false
}